#aV2007 10 25  0  0   .00000000      96 DD+AD WGS84 FIT  NGA
## 1450 345600.00000000   900.00000000 54398  .0000000000000
+   30     1  2  3  4  5  6  7  8  9 10 11 12 13 14 16 17 18
+         19 20 21 22 23 24 25 26 27 28 30 31 32  0  0  0  0
+          0  0  0  0  0  0  0  0  0  0  0  0  0  0  0  0  0
+          0  0  0  0  0  0  0  0  0  0  0  0  0  0  0  0  0
+          0  0  0  0  0  0  0  0  0  0  0  0  0  0  0  0  0
++         0  0  0  0  0  0  0  0  0  0  0  0  0  0  0  0  0
++         0  0  0  0  0  0  0  0  0  0  0  0  0  0  0  0  0
++         0  0  0  0  0  0  0  0  0  0  0  0  0  0  0  0  0
++         0  0  0  0  0  0  0  0  0  0  0  0  0  0  0  0  0
++         0  0  0  0  0  0  0  0  0  0  0  0  0  0  0  0  0
%c cc cc ccc ccc cccc cccc cccc cccc ccccc ccccc ccccc ccccc
%c cc cc ccc ccc cccc cccc cccc cccc ccccc ccccc ccccc ccccc
%f  0.0000000  0.000000000  0.00000000000  0.000000000000000
%f  0.0000000  0.000000000  0.00000000000  0.000000000000000
%i    0    0    0    0      0      0      0      0         0
%i    0    0    0    0      0      0      0      0         0
/*      NGA, ST. LOUIS,MO.                                  
/*   EPHEMERIS COMPUTED FROM  3 DAYS OF DATA                
/* CCCCCCCCCCCCCCCCCCCCCCCCCCCCCCCCCCCCCCCCCCCCCCCCCCCCCCCCC
/* CCCCCCCCCCCCCCCCCCCCCCCCCCCCCCCCCCCCCCCCCCCCCCCCCCCCCCCCC
*  2007 10 25 15  0   .00000000                                                 
P  1  15412.756785 -13556.356374 -16593.833554    162.150751                    
V  1  -4889.982146  20929.526906 -21441.159784       .029003                    
P  2 -21522.950626  12725.625372   8290.591074    146.257457                    
V  2 -11400.407733    -61.499059 -29150.083205       .027753                    
P  3  10831.336079 -21629.915692  10326.935215    134.766546                    
V  3   1833.490535  14027.005691  27193.983795       .054477                    
P  4 -26103.097489   5243.558398  -2753.895527    -17.397476                    
V  4   2447.084826  -3782.735426 -30905.496737      -.039176                    
P  5  13870.389760  20496.388188 -10093.707327    494.922012                    
V  5 -11520.251961  -5499.877701 -27572.427511       .269160                    
P  6   9518.609571  17832.673696  17396.928240    230.784405                    
V  6  -6413.119682  20980.246371 -18215.397275      -.066881                    
P  7  11225.956699  15590.882013  18663.024223    -39.878289                    
V  7  -5740.002725  22454.462093 -15623.358932       .116435                    
P  8 -24684.276638  -1114.181661  10239.547125   -127.673387                    
V  8  12237.917848  -4613.655998  28251.459017      -.011853                    
P  9  -1627.950301  16191.217291 -21573.420308     93.696263                    
V  9 -24846.957418   7637.129212   8013.453329       .017544                    
P 10  -9521.858333  11700.104301  21729.910560   -120.153089                    
V 10 -19886.850952 -19529.560430   2106.103859      -.129331                    
P 11  -2092.939164 -17161.986523 -20238.918091     25.301293                    
V 11  23617.751572 -10429.235201   6759.390189       .003433                    
P 12   8055.291254  21109.736774 -13926.593347   -346.057803                    
V 12 -14345.942672 -10761.054926 -24384.445615      -.013092                    
P 13  -7776.552986 -17021.621650  18754.845769    216.416224                    
V 13   7498.190955 -22756.685292 -17424.709994       .027411                    
P 14  15126.963566  -1349.264971 -21680.377712   -324.457430                    
V 14  -6785.494027  26853.768116  -6472.897498       .024893                    
P 16  13829.966017  -7368.052416  21536.388948    121.485412                    
V 16  19058.257579  19333.813722  -5481.382633       .019688                    
P 17 -15474.574443   -359.511134 -21553.928882     50.735261                    
V 17   6297.308964 -26697.637629  -4210.992232      -.010171                    
P 18  19754.152937  17843.607756  -2492.995114   -229.329141                    
V 18    286.487217   4369.207115  31090.570734       .020994                    
P 19   7497.164927 -25382.213688   -682.404454      3.283942                    
V 19   3199.865928    -15.664620  31772.333351       .021495                    
P 20 -10814.796101 -21371.858084 -11620.348219    127.332249                    
V 20  12484.282883   8023.615795 -26569.200710      -.006347                    
P 21  18228.671440   8642.867370  17709.115910     77.240100                    
V 21 -20915.380137   7166.050748  17594.844114      -.003863                    
P 22  21134.251169   7450.853931 -14127.641896    201.416751                    
V 22  10820.112066  14875.462518  23713.218571       .011168                    
P 23  -1051.117728 -24424.156103  10017.685200    303.221014                    
V 23   5409.266653 -11937.553867 -28568.856628       .035253                    
P 24   6031.303529  14346.089484  21695.504544     41.070738                    
V 24 -26305.359713   6687.889019   3202.719037       .029669                    
P 25 -12530.009126 -10836.178897  21093.370230    468.163879                    
V 25  23829.770566 -10392.828154   9121.614174       .068645                    
P 26  -8311.946886  24802.400870   1796.640376     73.590622                    
V 26  -1392.158383  -3382.653445  32729.910398       .125610                    
P 27 -18792.401447  -6659.344420  18303.437623    143.525145                    
V 27  20137.256704  -8549.160819  18023.828870       .024623                    
P 28 -21619.454544 -10476.177512 -11353.707937     -9.224303                    
V 28  -8899.089982 -12061.539769  26899.732289      -.006707                    
P 30  17509.349227  19640.978303  -4334.469627     50.152013                    
V 30  -5855.897214  -1064.390832 -30735.780402       .012556                    
P 31  25449.242243  -7740.884031    221.714722      4.828524                    
V 31    791.436696   2512.480204 -31792.688528      -.014251                    
P 32  16464.680240  -2230.703508 -20216.437191    113.850927                    
V 32  16966.157814  20699.344040  11411.662863       .144499                    
EOF
